<?xml version="1.0" encoding="UTF-8"?>
<gpx version="1.1" creator="MotaRoteiro-SulEspanha"
  xmlns="http://www.topografix.com/GPX/1/1"
  xmlns:xsi="http://www.w3.org/2001/XMLSchema-instance"
  xsi:schemaLocation="http://www.topografix.com/GPX/1/1 http://www.topografix.com/GPX/1/1/gpx.xsd">
  <metadata>
    <name>Dia2_Sevilla-Malaga</name>
    <desc>Dia 2 | 2 Out | Sevilha → Pueblos Blancos → Ronda → Málaga (~240 km)</desc>
    <time>2026-05-13T09:59:03Z</time>
    <keywords>moto, sul espanha, outubro 2026</keywords>
  </metadata>
  <rte>
    <name>Dia2_Sevilla-Malaga</name>
    <desc>Dia 2 | 2 Out | Sevilha → Pueblos Blancos → Ronda → Málaga (~240 km)</desc>
    <rtept lat="37.3891" lon="-5.9845">
      <name>Sevilla - Partida</name>
      <desc></desc>
    </rtept>
    <rtept lat="37.125" lon="-5.4528">
      <name>Moron de la Frontera</name>
      <desc>A-375 - boa estrada com paisagem</desc>
    </rtept>
    <rtept lat="37.0" lon="-5.4283">
      <name>Coripe</name>
      <desc>Início da zona serrana</desc>
    </rtept>
    <rtept lat="36.9333" lon="-5.2625">
      <name>Olvera</name>
      <desc>Pueblo Blanco icónico - foto obrigatória</desc>
    </rtept>
    <rtept lat="36.7462" lon="-5.1621">
      <name>Ronda</name>
      <desc>Almoço - Puente Nuevo e falésias</desc>
    </rtept>
    <rtept lat="36.7221" lon="-4.9972">
      <name>El Burgo</name>
      <desc>A-366 - estrada panorâmica excelente para mota</desc>
    </rtept>
    <rtept lat="36.9097" lon="-4.7472">
      <name>Ardales / El Chorro</name>
      <desc>Opcional: desfiladeiro espetacular</desc>
    </rtept>
    <rtept lat="36.8167" lon="-4.6949">
      <name>Alora</name>
      <desc>Descida suave para Málaga</desc>
    </rtept>
    <rtept lat="36.7213" lon="-4.4214">
      <name>Malaga - Chegada</name>
      <desc>Pernoita em Málaga</desc>
    </rtept>
  </rte>
</gpx>