<?xml version="1.0" encoding="UTF-8"?>
<gpx version="1.1" creator="MotaRoteiro-SulEspanha"
  xmlns="http://www.topografix.com/GPX/1/1"
  xmlns:xsi="http://www.w3.org/2001/XMLSchema-instance"
  xsi:schemaLocation="http://www.topografix.com/GPX/1/1 http://www.topografix.com/GPX/1/1/gpx.xsd">
  <metadata>
    <name>Dia3_Malaga-Granada</name>
    <desc>Dia 3 | 3 Out | Málaga → Costa Tropical → Alpujarras → Granada (~210 km)</desc>
    <time>2026-05-13T09:59:03Z</time>
    <keywords>moto, sul espanha, outubro 2026</keywords>
  </metadata>
  <rte>
    <name>Dia3_Malaga-Granada</name>
    <desc>Dia 3 | 3 Out | Málaga → Costa Tropical → Alpujarras → Granada (~210 km)</desc>
    <rtept lat="36.7213" lon="-4.4214">
      <name>Malaga - Partida</name>
      <desc></desc>
    </rtept>
    <rtept lat="36.7889" lon="-3.9064">
      <name>Frigiliana</name>
      <desc>Pueblo Blanco perto de Nerja - muito fotogénico</desc>
    </rtept>
    <rtept lat="36.744" lon="-3.8741">
      <name>Nerja</name>
      <desc>Balcón de Europa - paragem na falésia</desc>
    </rtept>
    <rtept lat="36.7327" lon="-3.6913">
      <name>Almunecar</name>
      <desc>Costa Tropical - paisagem subtropical</desc>
    </rtept>
    <rtept lat="36.7519" lon="-3.5183">
      <name>Motril</name>
      <desc></desc>
    </rtept>
    <rtept lat="36.9258" lon="-3.4867">
      <name>Lanjaron</name>
      <desc>Porta das Alpujarras - estrada N-323</desc>
    </rtept>
    <rtept lat="36.8991" lon="-3.4331">
      <name>Orgiva</name>
      <desc>Vale das Alpujarras - paisagem única</desc>
    </rtept>
    <rtept lat="37.1773" lon="-3.5986">
      <name>Granada - Chegada</name>
      <desc>Pernoita em Granada - visita à Alhambra à tarde</desc>
    </rtept>
  </rte>
</gpx>