<?xml version="1.0" encoding="UTF-8"?>
<gpx version="1.1" creator="RoteireMota-Andaluzia-2026"
  xmlns="http://www.topografix.com/GPX/1/1"
  xmlns:xsi="http://www.w3.org/2001/XMLSchema-instance"
  xsi:schemaLocation="http://www.topografix.com/GPX/1/1 http://www.topografix.com/GPX/1/1/gpx.xsd">
  <metadata>
    <name>Dia3_Ronda-Granada</name>
    <desc>Dia 3 | 3 Out | Ronda → A-397 → Costa del Sol → Alpujarras → Granada (~290 km)</desc>
  </metadata>
  <rte>
    <name>Dia3_Ronda-Granada</name>
    <desc>Dia 3 | 3 Out | Ronda → A-397 → Costa del Sol → Alpujarras → Granada (~290 km)</desc>
    <rtept lat="36.7462" lon="-5.1621">
      <name>Ronda - Partida</name>
      <desc></desc>
    </rtept>
    <rtept lat="36.5957" lon="-5.0194">
      <name>Puerto Las Palomas (A-397)</name>
      <desc>A-397: ESPETACULAR. Serranía de Ronda. Curvas largas e rápidas</desc>
    </rtept>
    <rtept lat="36.4945" lon="-4.998">
      <name>San Pedro de Alcantara</name>
      <desc>Saída para a Costa del Sol</desc>
    </rtept>
    <rtept lat="36.5101" lon="-4.8824">
      <name>Marbella</name>
      <desc>Brief stop - Puerto Banús se quiser</desc>
    </rtept>
    <rtept lat="36.7213" lon="-4.4214">
      <name>Malaga</name>
      <desc>Catedral, centro histórico</desc>
    </rtept>
    <rtept lat="36.7889" lon="-3.9064">
      <name>Frigiliana</name>
      <desc>Pueblo Blanco 5 min de Nerja. Muito fotogénico</desc>
    </rtept>
    <rtept lat="36.744" lon="-3.8741">
      <name>Nerja - Balcon de Europa</name>
      <desc>Falésia sobre o Mediterrâneo</desc>
    </rtept>
    <rtept lat="36.7327" lon="-3.6913">
      <name>Almunecar - Costa Tropical</name>
      <desc>Zona subtropical única</desc>
    </rtept>
    <rtept lat="36.7519" lon="-3.5183">
      <name>Motril</name>
      <desc></desc>
    </rtept>
    <rtept lat="36.9258" lon="-3.4867">
      <name>Lanjaron - Alpujarras</name>
      <desc>Entrada nas Alpujarras. A346: desfiladeiro do Guadalfeo</desc>
    </rtept>
    <rtept lat="36.999" lon="-3.2623">
      <name>Trevelez</name>
      <desc>Aldeia mais alta de Espanha (1476m). Jamón famoso</desc>
    </rtept>
    <rtept lat="36.8991" lon="-3.4331">
      <name>Orgiva</name>
      <desc>Vale das Alpujarras - influência mourisca</desc>
    </rtept>
    <rtept lat="37.1773" lon="-3.5986">
      <name>Granada - Chegada</name>
      <desc>Pernoita Granada. Visitar Alhambra à tarde</desc>
    </rtept>
  </rte>
</gpx>