<?xml version="1.0" encoding="UTF-8"?>
<gpx version="1.1" creator="RoteireMota-Andaluzia-2026"
  xmlns="http://www.topografix.com/GPX/1/1"
  xmlns:xsi="http://www.w3.org/2001/XMLSchema-instance"
  xsi:schemaLocation="http://www.topografix.com/GPX/1/1 http://www.topografix.com/GPX/1/1/gpx.xsd">
  <metadata>
    <name>Dia4_Granada-Sevilla</name>
    <desc>Dia 4 | 4 Out | Granada → Ruta del Califato → Grazalema → Sevilha (~340 km)</desc>
  </metadata>
  <rte>
    <name>Dia4_Granada-Sevilla</name>
    <desc>Dia 4 | 4 Out | Granada → Ruta del Califato → Grazalema → Sevilha (~340 km)</desc>
    <rtept lat="37.1773" lon="-3.5986">
      <name>Granada - Partida</name>
      <desc></desc>
    </rtept>
    <rtept lat="37.4609" lon="-3.9248">
      <name>Alcala la Real</name>
      <desc>N-432 Ruta del Califato. Fortaleza impressionante</desc>
    </rtept>
    <rtept lat="37.4378" lon="-4.1955">
      <name>Priego de Cordoba</name>
      <desc>Almoço aqui. A 'Florença da Andaluzia'</desc>
    </rtept>
    <rtept lat="37.4089" lon="-4.486">
      <name>Lucena</name>
      <desc></desc>
    </rtept>
    <rtept lat="37.2943" lon="-4.8778">
      <name>Estepa</name>
      <desc></desc>
    </rtept>
    <rtept lat="36.9611" lon="-4.5547">
      <name>Antequera - El Torcal</name>
      <desc>El Torcal: formações rochosas karst. Paragem</desc>
    </rtept>
    <rtept lat="36.8408" lon="-5.3968">
      <name>Zahara de la Sierra</name>
      <desc>Pueblo Blanco com lago turquesa. VISTA INCRÍVEL</desc>
    </rtept>
    <rtept lat="36.7611" lon="-5.3683">
      <name>Grazalema</name>
      <desc>Parque Natural. Estradas rápidas e panor. O MELHOR TROÇO</desc>
    </rtept>
    <rtept lat="36.7479" lon="-5.8043">
      <name>Arcos de la Frontera</name>
      <desc>Pueblo Blanco sobre falésia</desc>
    </rtept>
    <rtept lat="37.3891" lon="-5.9845">
      <name>Sevilla - Chegada</name>
      <desc>2ª noite Sevilha. Tapas em Triana</desc>
    </rtept>
  </rte>
</gpx>