<?xml version="1.0" encoding="UTF-8"?>
<gpx version="1.1" creator="RoteireMota-Andaluzia-2026"
  xmlns="http://www.topografix.com/GPX/1/1"
  xmlns:xsi="http://www.w3.org/2001/XMLSchema-instance"
  xsi:schemaLocation="http://www.topografix.com/GPX/1/1 http://www.topografix.com/GPX/1/1/gpx.xsd">
  <metadata>
    <name>Dia5_Sevilla-Queijas</name>
    <desc>Dia 5 | 5 Out | Sevilha → Algarve → N2 Alentejo → Queijas (~360 km)</desc>
  </metadata>
  <rte>
    <name>Dia5_Sevilla-Queijas</name>
    <desc>Dia 5 | 5 Out | Sevilha → Algarve → N2 Alentejo → Queijas (~360 km)</desc>
    <rtept lat="37.3891" lon="-5.9845">
      <name>Sevilla - Partida</name>
      <desc></desc>
    </rtept>
    <rtept lat="37.2614" lon="-6.9447">
      <name>Huelva</name>
      <desc>Via N-431 (livre)</desc>
    </rtept>
    <rtept lat="37.2119" lon="-7.4054">
      <name>Ayamonte</name>
      <desc>Fronteira ES/PT. Ponte Internacional do Guadiana</desc>
    </rtept>
    <rtept lat="37.1952" lon="-7.4136">
      <name>Vila Real de Sto Antonio</name>
      <desc>Entrada em Portugal</desc>
    </rtept>
    <rtept lat="37.1266" lon="-7.6496">
      <name>Tavira</name>
      <desc>Algarve histórico. Pausa café</desc>
    </rtept>
    <rtept lat="37.0194" lon="-7.9322">
      <name>Faro</name>
      <desc></desc>
    </rtept>
    <rtept lat="37.1363" lon="-8.5376">
      <name>Portimao</name>
      <desc>Almoço recomendado</desc>
    </rtept>
    <rtept lat="37.1534" lon="-7.8884">
      <name>Sao Bras de Alportel</name>
      <desc>Início da famosa N2 de Portugal</desc>
    </rtept>
    <rtept lat="37.5115" lon="-8.0619">
      <name>Almodôvar - N2</name>
      <desc>N2: a estrada mais famosa de Portugal</desc>
    </rtept>
    <rtept lat="37.6534" lon="-8.223">
      <name>Ourique</name>
      <desc>Planície alentejana</desc>
    </rtept>
    <rtept lat="38.0154" lon="-8.6962">
      <name>Santiago do Cacem</name>
      <desc></desc>
    </rtept>
    <rtept lat="38.5244" lon="-8.8978">
      <name>Setubal</name>
      <desc></desc>
    </rtept>
    <rtept lat="38.7123" lon="-9.2553">
      <name>Queijas - CHEGADA</name>
      <desc>🏠 Casa! Fim da viagem. ~1450 km percorridos</desc>
    </rtept>
  </rte>
</gpx>