<?xml version="1.0" encoding="UTF-8"?>
<gpx version="1.1" creator="Ferias-SUL-ESPANHA-2026" xmlns="http://www.topografix.com/GPX/1/1">
  <metadata><name>Dia 5 | 5 Out 2026 | Córdoba → Queijas</name><desc>Dia 5 | 5 Out 2026 | Córdoba → Queijas</desc></metadata>
  <wpt lat="37.89154" lon="-4.77878"><name>Córdoba - Partida</name></wpt>
  <wpt lat="38.71588" lon="-9.26349"><name>Queijas - Chegada</name></wpt>
  <trk>
    <name>Dia 5 | 5 Out 2026 | Córdoba → Queijas</name>
    <trkseg>
      <trkpt lat="37.89154" lon="-4.77878"/>
      <trkpt lat="37.90838" lon="-4.78574"/>
      <trkpt lat="37.92575" lon="-4.79013"/>
      <trkpt lat="37.93235" lon="-4.79476"/>
      <trkpt lat="37.94177" lon="-4.79965"/>
      <trkpt lat="37.94574" lon="-4.80416"/>
      <trkpt lat="37.95114" lon="-4.8102"/>
      <trkpt lat="37.9411" lon="-4.82285"/>
      <trkpt lat="37.95355" lon="-4.82998"/>
      <trkpt lat="37.96436" lon="-4.8348"/>
      <trkpt lat="37.97118" lon="-4.83829"/>
      <trkpt lat="37.97859" lon="-4.85403"/>
      <trkpt lat="37.98106" lon="-4.86085"/>
      <trkpt lat="37.97632" lon="-4.86603"/>
      <trkpt lat="37.97186" lon="-4.86691"/>
      <trkpt lat="37.97525" lon="-4.86956"/>
      <trkpt lat="37.97947" lon="-4.88035"/>
      <trkpt lat="37.98206" lon="-4.88605"/>
      <trkpt lat="37.98849" lon="-4.89175"/>
      <trkpt lat="37.99534" lon="-4.89178"/>
      <trkpt lat="38.00141" lon="-4.89623"/>
      <trkpt lat="38.00442" lon="-4.89935"/>
      <trkpt lat="38.01141" lon="-4.90033"/>
      <trkpt lat="38.01787" lon="-4.89882"/>
      <trkpt lat="38.02118" lon="-4.8933"/>
      <trkpt lat="38.02807" lon="-4.89421"/>
      <trkpt lat="38.03194" lon="-4.90014"/>
      <trkpt lat="38.03342" lon="-4.91108"/>
      <trkpt lat="38.03965" lon="-4.91587"/>
      <trkpt lat="38.04348" lon="-4.92481"/>
      <trkpt lat="38.04714" lon="-4.92963"/>
      <trkpt lat="38.04938" lon="-4.94042"/>
      <trkpt lat="38.05118" lon="-4.94889"/>
      <trkpt lat="38.05348" lon="-4.95646"/>
      <trkpt lat="38.05802" lon="-4.96407"/>
      <trkpt lat="38.06005" lon="-4.97274"/>
      <trkpt lat="38.06414" lon="-4.9814"/>
      <trkpt lat="38.06657" lon="-4.99486"/>
      <trkpt lat="38.07427" lon="-5.00787"/>
      <trkpt lat="38.07099" lon="-5.01859"/>
      <trkpt lat="38.07514" lon="-5.03588"/>
      <trkpt lat="38.08324" lon="-5.05146"/>
      <trkpt lat="38.0912" lon="-5.05358"/>
      <trkpt lat="38.1056" lon="-5.06667"/>
      <trkpt lat="38.11348" lon="-5.0818"/>
      <trkpt lat="38.12236" lon="-5.09374"/>
      <trkpt lat="38.13378" lon="-5.09351"/>
      <trkpt lat="38.14755" lon="-5.08938"/>
      <trkpt lat="38.15249" lon="-5.09296"/>
      <trkpt lat="38.15683" lon="-5.09936"/>
      <trkpt lat="38.16861" lon="-5.10253"/>
      <trkpt lat="38.17411" lon="-5.11001"/>
      <trkpt lat="38.18179" lon="-5.12264"/>
      <trkpt lat="38.18725" lon="-5.12881"/>
      <trkpt lat="38.19368" lon="-5.1424"/>
      <trkpt lat="38.20221" lon="-5.15015"/>
      <trkpt lat="38.20221" lon="-5.15015"/>
      <trkpt lat="38.22" lon="-5.25"/>
      <trkpt lat="38.24" lon="-5.35"/>
      <trkpt lat="38.26" lon="-5.45"/>
      <trkpt lat="38.28" lon="-5.55"/>
      <trkpt lat="38.3" lon="-5.65"/>
      <trkpt lat="38.32" lon="-5.72"/>
      <trkpt lat="38.35" lon="-5.85"/>
      <trkpt lat="38.38" lon="-5.95"/>
      <trkpt lat="38.4" lon="-6.05"/>
      <trkpt lat="38.42" lon="-6.1"/>
      <trkpt lat="38.45" lon="-6.15"/>
      <trkpt lat="38.48" lon="-6.2"/>
      <trkpt lat="38.52" lon="-6.25"/>
      <trkpt lat="38.55" lon="-6.28"/>
      <trkpt lat="38.58" lon="-6.32"/>
      <trkpt lat="38.6" lon="-6.35"/>
      <trkpt lat="38.63" lon="-6.38"/>
      <trkpt lat="38.66" lon="-6.42"/>
      <trkpt lat="38.69167" lon="-6.43912"/>
      <trkpt lat="38.69167" lon="-6.43912"/>
      <trkpt lat="38.72007" lon="-6.48671"/>
      <trkpt lat="38.7299" lon="-6.53841"/>
      <trkpt lat="38.75345" lon="-6.57178"/>
      <trkpt lat="38.80137" lon="-6.63135"/>
      <trkpt lat="38.82382" lon="-6.66401"/>
      <trkpt lat="38.85124" lon="-6.71267"/>
      <trkpt lat="38.8572" lon="-6.74382"/>
      <trkpt lat="38.86332" lon="-6.78952"/>
      <trkpt lat="38.87193" lon="-6.86499"/>
      <trkpt lat="38.88955" lon="-6.91511"/>
      <trkpt lat="38.91978" lon="-6.97044"/>
      <trkpt lat="38.88777" lon="-7.01824"/>
      <trkpt lat="38.89007" lon="-7.11232"/>
      <trkpt lat="38.91041" lon="-7.17434"/>
      <trkpt lat="38.88146" lon="-7.23668"/>
      <trkpt lat="38.84926" lon="-7.36316"/>
      <trkpt lat="38.82383" lon="-7.44153"/>
      <trkpt lat="38.82429" lon="-7.57589"/>
      <trkpt lat="38.80268" lon="-7.65364"/>
      <trkpt lat="38.75845" lon="-7.71102"/>
      <trkpt lat="38.69481" lon="-7.80774"/>
      <trkpt lat="38.634" lon="-7.88543"/>
      <trkpt lat="38.60506" lon="-8.04888"/>
      <trkpt lat="38.6473" lon="-8.15606"/>
      <trkpt lat="38.66433" lon="-8.23658"/>
      <trkpt lat="38.6405" lon="-8.35426"/>
      <trkpt lat="38.63921" lon="-8.49692"/>
      <trkpt lat="38.60335" lon="-8.64915"/>
      <trkpt lat="38.59336" lon="-8.75218"/>
      <trkpt lat="38.58718" lon="-8.83615"/>
      <trkpt lat="38.58586" lon="-8.92467"/>
      <trkpt lat="38.57805" lon="-9.03698"/>
      <trkpt lat="38.63762" lon="-9.15405"/>
      <trkpt lat="38.70002" lon="-9.17935"/>
      <trkpt lat="38.7243" lon="-9.17625"/>
      <trkpt lat="38.71633" lon="-9.22561"/>
      <trkpt lat="38.71532" lon="-9.26351"/>
      <trkpt lat="38.71588" lon="-9.26349"/>
    </trkseg>
  </trk>
</gpx>